NORAD_CAT_ID,OBJECT_NAME,OBJECT_TYPE,EPOCH,MEAN_MOTION,ECCENTRICITY,INCLINATION,RA_OF_ASC_NODE,ARG_OF_PERICENTER,MEAN_ANOMALY,BSTAR,MEAN_MOTION_DOT,MEAN_MOTION_DDOT,TLE_LINE0,TLE_LINE1,TLE_LINE2,SEMIMAJOR_AXIS,PERIOD,APOGEE,PERIGEE,DECAYED
53908.0,STARLINK-5057,PAYLOAD,2024-02-21 07:23:48,15.08848317,0.00018,53.2149,69.3865,90.4967,269.6232,0.0003146,4.723e-05,0.0,0 STARLINK-5057,1 53908U 22119Y   24052.30819694  .00004723  00000-0  31460-3 0  9996,2 53908  53.2149  69.3865 0001800  90.4967 269.6232 15.08848317 78990,6917.855,95.437,540.965,538.475,0.0
53908.0,STARLINK-5057,PAYLOAD,2024-02-21 18:31:30,15.08841265,0.0001533,53.2148,67.3079,82.4948,277.6218,0.00012083,1.636e-05,0.0,0 STARLINK-5057,1 53908U 22119Y   24052.77187919  .00001636  00000-0  12083-3 0  9995,2 53908  53.2148  67.3079 0001533  82.4948 277.6218 15.08841265 79064,6917.877,95.437,540.802,538.681,0.0
53908.0,STARLINK-5057,PAYLOAD,2024-02-22 04:03:49,15.08837781,0.0001622,53.2143,65.5227,85.427,274.6908,9.1461e-05,1.168e-05,0.0,0 STARLINK-5057,1 53908U 22119Y   24053.16932228  .00001168  00000-0  91461-4 0  9998,2 53908  53.2143  65.5227 0001622  85.4270 274.6908 15.08837781 78705,6917.887,95.438,540.874,538.63,0.0
53908.0,STARLINK-5057,PAYLOAD,2024-02-22 07:14:35,15.08840505,0.0001547,53.2157,64.9275,89.5606,270.5563,0.00013443,1.852e-05,0.0,0 STARLINK-5057,1 53908U 22119Y   24053.30180059  .00001852  00000-0  13443-3 0  9994,2 53908  53.2157  64.9275 0001547  89.5606 270.5563 15.08840505 79149,6917.879,95.438,540.814,538.674,0.0
53908.0,STARLINK-5057,PAYLOAD,2024-02-23 07:05:22,15.08840998,0.0001407,53.2172,60.4644,100.7819,259.3331,0.00018742,2.696e-05,0.0,0 STARLINK-5057,1 53908U 22119Y   24054.29539768  .00002696  00000-0  18742-3 0  9992,2 53908  53.2172  60.4644 0001407 100.7819 259.3331 15.08840998 78877,6917.877,95.437,540.716,538.769,0.0
53908.0,STARLINK-5057,PAYLOAD,2024-02-24 03:45:23,15.08835656,0.0001648,53.2171,56.5981,100.7474,259.3704,6.3579e-05,7.24e-06,0.0,0 STARLINK-5057,1 53908U 22119Y   24055.15652445  .00000724  00000-0  63579-4 0  9995,2 53908  53.2171  56.5981 0001648 100.7474 259.3704 15.08835656 79005,6917.894,95.438,540.899,538.619,0.0
53908.0,STARLINK-5057,PAYLOAD,2024-02-24 06:56:10,15.08833763,0.0001514,53.2172,56.0089,90.9786,269.138,9.7749e-05,1.268e-05,0.0,0 STARLINK-5057,1 53908U 22119Y   24055.28900606  .00001268  00000-0  97749-4 0  9994,2 53908  53.2172  56.0089 0001514  90.9786 269.1380 15.08833763 79442,6917.899,95.438,540.812,538.717,0.0
53908.0,STARLINK-5057,PAYLOAD,2024-02-24 22:50:01,15.0883996,0.0001559,53.2165,53.0334,97.1483,262.9687,1.6348e-05,-2.8e-07,0.0,0 STARLINK-5057,1 53908U 22119Y   24055.95140599 -.00000028  00000-0  16348-4 0  9995,2 53908  53.2165  53.0334 0001559  97.1483 262.9687 15.08839960 79543,6917.881,95.438,540.824,538.667,0.0
53908.0,STARLINK-5057,PAYLOAD,2024-02-25 05:11:33,15.08844623,0.0001586,53.2173,51.8455,100.3897,259.7274,5.6572e-05,6.13e-06,0.0,0 STARLINK-5057,1 53908U 22119Y   24056.21636166  .00000613  00000-0  56572-4 0  9997,2 53908  53.2173  51.8455 0001586 100.3897 259.7274 15.08844623 79164,6917.866,95.437,540.828,538.634,0.0
53908.0,STARLINK-5057,PAYLOAD,2024-02-25 06:46:56,15.0884524,0.0001595,53.2171,51.5473,98.4251,261.6922,6.4474e-05,7.38e-06,0.0,0 STARLINK-5057,1 53908U 22119Y   24056.28260108  .00000738  00000-0  64474-4 0  9991,2 53908  53.2171  51.5473 0001595  98.4251 261.6922 15.08845240 79595,6917.864,95.437,540.833,538.626,0.0
53908.0,STARLINK-5057,PAYLOAD,2024-02-25 16:19:15,15.08846094,0.0001607,53.2177,49.7631,98.4686,261.6488,2.957e-05,1.83e-06,0.0,0 STARLINK-5057,1 53908U 22119Y   24056.68004078  .00000183  00000-0  29570-4 0  9999,2 53908  53.2177  49.7631 0001607  98.4686 261.6488 15.08846094 79654,6917.862,95.437,540.838,538.615,0.0
53908.0,STARLINK-5057,PAYLOAD,2024-02-26 06:37:43,15.08847504,0.0001625,53.2177,47.087,98.2047,261.9129,0.00019387,2.799e-05,0.0,0 STARLINK-5057,1 53908U 22119Y   24057.27619797  .00002799  00000-0  19387-3 0  9994,2 53908  53.2177  47.0870 0001625  98.2047 261.9129 15.08847504 79325,6917.857,95.437,540.847,538.598,0.0
53908.0,STARLINK-5057,PAYLOAD,2024-02-26 22:31:35,15.08841329,0.0001738,53.2171,44.1124,100.9021,259.2167,-3.1633e-08,-2.89e-06,0.0,0 STARLINK-5057,1 53908U 22119Y   24057.93860155 -.00000289  00000-0 -31633-7 0  9999,2 53908  53.2171  44.1124 0001738 100.9021 259.2167 15.08841329 79845,6917.876,95.437,540.944,538.539,0.0
53908.0,STARLINK-5057,PAYLOAD,2024-02-27 03:17:45,15.08838864,0.000176,53.2171,43.2182,108.7186,251.3997,-2.9411e-06,-3.35e-06,0.0,0 STARLINK-5057,1 53908U 22119Y   24058.13732807 -.00000335  00000-0 -29411-5 0  9995,2 53908  53.2171  43.2182 0001760 108.7186 251.3997 15.08838864 79453,6917.884,95.438,540.966,538.531,0.0
53908.0,STARLINK-5057,PAYLOAD,2024-02-27 08:03:54,15.08842923,0.0001827,53.2174,42.3255,102.7303,257.3893,-6.8931e-05,-1.385e-05,0.0,0 STARLINK-5057,1 53908U 22119Y   24058.33604672 -.00001385  00000-0 -68931-4 0  9990,2 53908  53.2174  42.3255 0001827 102.7303 257.3893 15.08842923 79908,6917.871,95.437,541.0,538.473,0.0
53908.0,STARLINK-5057,PAYLOAD,2024-02-27 22:22:22,15.08843308,0.0001879,53.2179,39.6496,89.9881,270.1327,-8.1854e-05,-1.591e-05,0.0,0 STARLINK-5057,1 53908U 22119Y   24058.93220886 -.00001591  00000-0 -81854-4 0  9995,2 53908  53.2179  39.6496 0001879  89.9881 270.1327 15.08843308 79995,6917.87,95.437,541.035,538.435,0.0
53908.0,STARLINK-5057,PAYLOAD,2024-02-28 04:43:54,15.08845342,0.0001348,53.216,38.4619,95.0085,265.1061,7.5353e-05,9.12e-06,0.0,0 STARLINK-5057,1 53908U 22119Y   24059.19716257  .00000912  00000-0  75353-4 0  9997,2 53908  53.2160  38.4619 0001348  95.0085 265.1061 15.08845342 79612,6917.864,95.437,540.662,538.797,0.0
53908.0,STARLINK-5057,PAYLOAD,2024-02-28 06:19:17,15.08849858,0.0001489,53.2169,38.1657,86.6114,273.5048,4.4641e-05,4.23e-06,0.0,0 STARLINK-5057,1 53908U 22119Y   24059.26339949  .00000423  00000-0  44641-4 0  9997,2 53908  53.2169  38.1657 0001489  86.6114 273.5048 15.08849858 80048,6917.85,95.437,540.745,538.685,0.0
53908.0,STARLINK-5057,PAYLOAD,2024-02-28 15:51:37,15.08837076,0.0001549,53.2188,36.378,89.1477,270.9692,7.0066e-05,8.27e-06,0.0,0 STARLINK-5057,1 53908U 22119Y   24059.66084694  .00000827  00000-0  70066-4 0  9993,2 53908  53.2188  36.3780 0001549  89.1477 270.9692 15.08837076 79686,6917.889,95.438,540.826,538.683,0.0
53908.0,STARLINK-5057,PAYLOAD,2024-02-28 22:13:10,15.08833393,0.0001604,53.2183,35.1892,89.9328,270.1848,5.7633e-05,6.29e-06,0.0,0 STARLINK-5057,1 53908U 22119Y   24059.92581071  .00000629  00000-0  57633-4 0  9998,2 53908  53.2183  35.1892 0001604  89.9328 270.1848 15.08833393 80143,6917.901,95.438,540.875,538.656,0.0
53908.0,STARLINK-5057,PAYLOAD,2024-02-29 07:45:28,15.08839009,0.0001619,53.2183,33.4048,90.8852,269.2326,9.296e-05,1.192e-05,0.0,0 STARLINK-5057,1 53908U 22119Y   24060.32324736  .00001192  00000-0  92960-4 0  9995,2 53908  53.2183  33.4048 0001619  90.8852 269.2326 15.08839009 80203,6917.883,95.438,540.868,538.628,0.0
53908.0,STARLINK-5057,PAYLOAD,2024-02-29 22:03:56,15.08831134,0.0001146,53.2184,30.728,96.6901,263.4221,0.00015614,2.197e-05,0.0,0 STARLINK-5057,1 53908U 22119Y   24060.91940948  .00002197  00000-0  15614-3 0  9995,2 53908  53.2184  30.7280 0001146  96.6901 263.4221 15.08831134 80296,6917.907,95.438,540.565,538.98,0.0
53908.0,STARLINK-5057,PAYLOAD,2024-03-01 04:25:29,15.08838529,0.0001153,53.2176,29.5383,97.8043,262.308,0.0001982,2.868e-05,0.0,0 STARLINK-5057,1 53908U 22119Y   24061.18436465  .00002868  00000-0  19820-3 0  9997,2 53908  53.2176  29.5383 0001153  97.8043 262.3080 15.08838529 79918,6917.885,95.438,540.548,538.952,0.0
53908.0,STARLINK-5057,PAYLOAD,2024-03-01 07:36:15,15.08848015,0.0001559,53.2178,28.9435,106.8845,253.2318,0.00010092,1.319e-05,0.0,0 STARLINK-5057,1 53908U 22119Y   24061.31684107  .00001319  00000-0  10092-3 0  9992,2 53908  53.2178  28.9435 0001559 106.8845 253.2318 15.08848015 80356,6917.856,95.437,540.799,538.642,0.0
53908.0,STARLINK-5057,PAYLOAD,2024-03-02 02:40:53,15.08839392,0.0001764,53.2178,25.3747,92.7891,267.3303,6.2676e-05,7.1e-06,0.0,0 STARLINK-5057,1 53908U 22119Y   24062.11172792  .00000710  00000-0  62676-4 0  9993,2 53908  53.2178  25.3747 0001764  92.7891 267.3303 15.08839392 80050,6917.882,95.438,540.968,538.527,0.0
53908.0,STARLINK-5057,PAYLOAD,2024-03-02 04:16:16,15.08844341,0.0001576,53.2181,25.0769,94.1407,265.9765,6.6325e-05,7.68e-06,0.0,0 STARLINK-5057,1 53908U 22119Y   24062.17796409  .00000768  00000-0  66325-4 0  9994,2 53908  53.2181  25.0769 0001576  94.1407 265.9765 15.08844341 80488,6917.867,95.437,540.822,538.642,0.0
53908.0,STARLINK-5057,PAYLOAD,2024-03-03 04:07:03,15.08834213,0.0001415,53.2194,20.6214,85.5446,274.5707,6.7859e-05,7.92e-06,0.0,0 STARLINK-5057,1 53908U 22119Y   24063.17157140  .00000792  00000-0  67859-4 0  9998,2 53908  53.2194  20.6214 0001415  85.5446 274.5707 15.08834213 80217,6917.898,95.438,540.742,538.784,0.0
53908.0,STARLINK-5057,PAYLOAD,2024-03-04 05:33:12,15.08858087,0.0001868,53.2201,15.8654,124.1461,235.9709,9.628e-05,1.245e-05,0.0,0 STARLINK-5057,1 53908U 22119Y   24064.23139400  .00001245  00000-0  96280-4 0  9999,2 53908  53.2201  15.8654 0001868 124.1461 235.9709 15.08858087 80374,6917.825,95.436,540.982,538.398,0.0
53908.0,STARLINK-5057,PAYLOAD,2024-03-04 13:30:09,15.08841125,0.0001881,53.2185,14.3748,78.0197,282.1006,7.5944e-05,9.21e-06,0.0,0 STARLINK-5057,1 53908U 22119Y   24064.56260670  .00000921  00000-0  75944-4 0  9993,2 53908  53.2185  14.3748 0001881  78.0197 282.1006 15.08841125 80426,6917.877,95.437,541.043,538.441,0.0
53908.0,STARLINK-5057,PAYLOAD,2024-03-05 03:48:38,15.08829149,0.0001549,53.2189,11.6984,78.0305,282.0861,-1.3912e-05,-5.09e-06,0.0,0 STARLINK-5057,1 53908U 22119Y   24065.15877914 -.00000509  00000-0 -13912-4 0  9995,2 53908  53.2189  11.6984 0001549  78.0305 282.0861 15.08829149 80514,6917.914,95.438,540.85,538.707,0.0
